#dP2021  8  8  0  0  0.00000000      96 __u+U ITR00 EXT  IAC
## 2170      0.00000000   900.00000000 59434 0.0000000000000
+  113   C07C08C09C10C11C12C13C14C16C19C20C21C22C23C24C25C26
+        C27C28C29C30C32C33C34C35C36C37C38C40C41C42C43C44C45
+        C46E01E02E03E04E05E07E08E09E11E12E13E14E15E18E19E21
+        E24E25E26E27E30E31E33E36G01G02G04G05G06G07G08G09G10
+        G12G13G14G15G16G17G18G19G20G21G22G23G24G25G26G27G28
+        G29G30G31G32J01J02J03R01R02R03R04R05R07R08R09R11R12
+        R13R14R15R16R17R18R19R20R21R22R24  0  0  0  0  0  0
++        10 10 10 10  9  9 10 13 10  9  8  9  9  9 10  9  8
++         8  8  9  9  9  9  9  9  8  8 11 11  8  8 10 10  9
++         8  8  8  8  9  8  8  9  9  8  9  8  9  9  8  8  8
++         8  9  8  8  8  9  9  9  8  8  7  8  8  8  8  9  8
++         8  8  8  8  8  9  8  8  9  8  7  8  9  8  8  8  9
++         8  8  7  8 13 11 10  8  9  8  7 10  7  8  9  8  8
++         8  9  8  9  8  9  9 10 10  8  9  0  0  0  0  0  0
%c M  cc GPS ccc cccc cccc cccc cccc ccccc ccccc ccccc ccccc
%c cc cc ccc ccc cccc cccc cccc cccc ccccc ccccc ccccc ccccc
%f  0.0000000  0.000000000  0.00000000000  0.000000000000000
%f  0.0000000  0.000000000  0.00000000000  0.000000000000000
%i    0    0    0    0      0      0      0      0         0
%i    0    0    0    0      0      0      0      0         0
/* IAC                                ULTRA-RAPID PREDICTION
/* S/V CLOCKS ARE ALIGNED TO GNSS TIME                      
/* G:C1WC2W R:C1PC2P E:C1XC5X C:C2IC6I J:C1CC2S             
/* PCV:IGS14_2163 OL/AL:FES2004  NONE     YN ORB:CoN CLK:CoN
*  2021 08 08  4 15  0.00000000
PC07 -12613.829195  37597.480226 -13155.305626     34.402843
PC08  -7047.858519  20931.290429  36060.457690   -917.139088
PC09  -7951.421362  26589.595051 -31561.485578    -10.277432
PC10  -3186.211558  41727.643766  -1703.698496    -10.700971
PC11  19812.529081   6749.842952  18537.697306    504.234614
PC12   1424.886467  15520.698542  23174.290404    788.346915
PC13   6752.086688  28577.638913  30455.877728    365.704994
PC14  11902.766816  14070.015981 -20917.144666    738.328285
PC16 -20488.678558  27134.538487 -24953.477485   -872.796194
PC19 -15508.959216  -3274.504161  22989.033891    938.781674
PC20  -7360.244936 -21163.726321  16666.092789   -824.737707
PC21  -5698.504322  27303.955453     12.961668   -939.376611
PC22 -14969.708025  17097.276276  16174.199456   -949.862750
PC23  16223.683389  -6384.205152  21803.050017   -962.878854
PC24  16440.376461  21515.691145  -6789.443722   -964.158586
PC25  23605.339983   9671.157531  11335.691928   -873.655270
PC26   1559.825307  19848.376249 -19569.502863    867.511325
PC27   8996.765293 -17259.914668 -20015.069882    577.365235
PC28  24460.480245 -11990.065235  -6084.116524    -41.115615
PC29 -25477.514410    641.075072 -11375.298146    430.374078
PC30 -11542.152101 -12272.302917 -22257.373628    476.733193
PC32   5497.039065 -27366.976412    -18.023457   -929.347981
PC33  15534.077617   3246.004849 -22952.132912   -953.660732
PC34  12310.186019  11911.038590  22014.479095   -609.993643
PC35 -24229.914481  12651.141875   5687.443746   -149.878768
PC36 -23370.431020 -10556.796839 -10975.392119   -740.874023
PC37   -128.298751 -19436.783760  20043.004366   -861.779182
PC38  -6316.583846  23839.607719  34223.005799    167.114346
PC40  -9167.618982  40859.393264  -4142.734197    188.218912
PC41  15011.942202 -16879.420160 -16339.282679   -966.295598
PC42   6889.449910  21733.849460 -16038.578972   -929.594360
PC43  25283.247189    -74.100797  11782.869737   -857.854130
PC44  -8638.789257  17662.744027  19801.213853    329.944114
PC45 -16002.092950   6469.074384 -21911.568733    514.789338
PC46 -17207.337497 -21169.356894   5809.186085    142.227461
PE01 -18417.575871 -13730.005750 -18659.615877  -1167.018762
PE02  18438.499673  13588.732011  18760.009136    238.416640
PE03  18985.773041   2144.112311 -22612.923854   -461.320267
PE04 -22685.914432  16054.247749  10187.907169   -830.335877
PE05   4057.862893  19412.874199 -21969.413767   -258.952415
PE07  13051.991577 -25167.546164   8541.685612   -571.169454
PE08  22509.869555 -16488.044959  -9903.267914   5957.614146
PE09 -12829.655331  25191.182116  -8738.917820   5573.513949
PE11  -7559.619279  14921.528500  24406.509514   5608.662725
PE12 -25721.817163   4928.478978  13797.236740   5071.290075
PE13   8011.399219 -14742.328024 -24387.980509    420.014918
PE14  -3065.335742 -22110.482472 -23705.533890  -1527.928229
PE15  25679.526415  -4991.713728 -13852.817921    799.159433
PE18   5865.259533  13997.592858  17909.044363  -1675.484498
PE19 -17584.029599  -4405.665460  23405.918383    346.787893
PE21 -11915.612466 -26955.258361  -2774.075098   -680.742851
PE24  -2639.511394  24725.793723 -16073.926747  -1051.008577
PE25  11806.996550  27019.649533   2590.126439   -542.540522
PE26 -15147.569533 -15796.892899 -19928.671096   1486.870452
PE27   1815.137228 -25215.869804  15404.069818    -93.124964
PE30  14948.060347  -7442.518839  24438.680799   2719.584721
PE31 -14361.483839   8670.650226 -24372.877359   -484.152443
PE33 -28180.411084  -7676.201322  -4815.041637   -466.567068
PE36  14319.939624  15787.190829  20535.491312   -245.387259
PG01 -20748.566050 -14254.661593  -9264.818816    604.153944
PG02  -1408.325630  15566.631085  22125.485251   -624.919923
PG04 -13036.850036  -8778.419507  21425.299685   -203.639486
PG05   6415.968010  25660.413994  -1084.343635    -50.423730
PG06 -14137.510878   9380.224796  20505.591391     52.444060
PG07 -25685.352598  -6014.051818  -4506.640364    220.302867
PG08  -3168.521187 -16240.523687 -20718.287428    -31.794039
PG09 -20538.991691   2330.000094  16629.003410   -358.172074
PG10  12670.581861 -10121.120413 -20861.563268   -178.080274
PG12  10312.987546  21444.590221  11686.770926    -79.824633
PG13  -6015.360792  18603.628289 -18046.869928    168.385157
PG14 -13210.115551  10425.176051 -20540.955788     28.782656
PG15   5873.209215  16179.158227 -20529.870454   -129.919644
PG16    524.683461 -25942.710997   4130.695483   -370.131497
PG17 -22615.037097  12922.792205  -4779.307549    486.045608
PG18  25182.427241   4082.712694  -7557.896962    334.710955
PG19 -20351.781449  16546.076842   3347.823699     36.774692
PG20   -220.235523  24317.293409  10952.371412    519.771269
PG21 -15656.333656 -15156.370975 -14838.298089    135.977717
PG22 -10576.361990 -24050.404224   4764.788634   -543.679196
PG23  15637.541737   2648.257981 -21337.729105     73.752213
PG24  17777.825178  15148.885889 -13264.272831    201.617942
PG25  15191.322337  11410.478474  18404.753662    187.406718
PG26   6341.570804 -20892.089473  14873.592524    120.087293
PG27   7236.338152 -20095.460459 -15726.785122   -175.042330
PG28 -10460.689951  16705.172334 -17348.920460    523.795437
PG29  19449.109823    696.233219  18054.700395   -392.808704
PG30 -21542.717997   3671.108489 -15186.234940   -459.803912
PG31  12946.887676 -10625.070531  20622.390548   -133.071318
PG32  21088.073673 -15770.748340  -2534.235430      9.219397
PJ01 -31414.251362  26473.274374  14311.876461   -434.235508
PJ02 -20302.309438  22510.154196 -24764.925677     -1.373156
PJ03 -29986.965861  27323.576632  16391.535769     -0.634553
PR01  -7821.700075  -9528.176899  22333.850631     83.499235
PR02 -14045.776008  11563.850719  17947.855468    488.904051
PR03 -10866.502360  22960.158911   2659.619767     40.889104
PR04  -1776.460042  21253.826325 -13972.322472     99.247688
PR05   8289.907778   7817.278045 -22814.186873     76.764982
PR07  10550.118560 -23121.220672  -1857.570758    -41.741336
PR08   1566.419881 -21222.410031  14102.727717    -60.270536
PR09  14043.769587    813.234661  21282.391357      6.971609
PR11 -11058.105400 -21012.047935   9358.372232     45.971633
PR12 -17768.024940 -15973.719563  -8881.171432    251.855607
PR13 -14285.999588  -1789.827335 -21065.640598    -58.833616
PR14  -1880.507995  14182.983417 -21094.000242     67.394798
PR15  11117.972628  21224.421889  -8716.760811    102.216447
PR16  18315.841843  14830.583909   9902.932417    -19.205854
PR17 -14645.039169  10212.989382  18197.906432    447.924991
PR18   3107.050697  10119.286422  23213.775139     86.174142
PR19  18582.107696   5590.239326  16556.637204   -154.576052
PR20  25162.402955  -3394.589791  -2254.281295    -53.788228
PR21  13577.448659 -10303.004884 -18998.150786   -229.874348
PR22  -4300.786794  -9896.382020 -23139.273591   -126.750504
PR24 -24970.364390   4219.524661   2972.920286     53.641446
EOF
